STARLINK-3122           
1 49445U 21104AP  24200.25960189  .00007337  00000+0  47847-3 0  9994
2 49445  53.2165  30.4657 0001351  72.4953 287.6186 15.08849769149352
STARLINK-3099           
1 49446U 21104AQ  24200.46928161 -.00000660  00000+0 -23363-4 0  9994
2 49446  53.2171  19.1259 0001495  90.0505 270.0658 15.08833094149523
STARLINK-3115           
1 49447U 21104AR  24199.81699868  .00003138  00000+0  21515-3 0  9997
2 49447  53.2182  32.0462 0001555 120.2830 239.8316 15.08841531148214
STARLINK-3137           
1 49449U 21104AT  24199.81329999  .00007900  00000+0  51351-3 0  9996
2 49449  53.2181  32.0807 0001384  87.3592 272.7558 15.08867391149291
STARLINK-3127           
1 49450U 21104AU  24199.82436379  .00001410  00000+0  10668-3 0  9996
2 49450  53.2177  32.0594 0001278  82.0978 278.0159 15.08837850148475
STARLINK-3125           
1 49451U 21104AV  24199.80964081  .00001457  00000+0  10964-3 0  9991
2 49451  53.2178  32.0899 0001412  99.9101 260.2050 15.08838036148212
STARLINK-3150           
1 49452U 21104AW  24200.26323789  .00018911  00000+0  12027-2 0  9993
2 49452  53.2166  30.0869 0001153  82.8193 277.2930 15.08852165149360
STARLINK-3129           
1 49453U 21104AX  24199.81060796 -.00000143  00000+0  90763-5 0  9993
2 49453  53.2174  32.1695 0001368  86.5741 273.5408 15.08837446148215
STARLINK-3160           
1 49454U 21104AY  24200.26964309  .00000962  00000+0  78511-4 0  9993
2 49454  53.2191  30.0168 0001521 113.4318 246.6834 15.08834132149368
STARLINK-3145           
1 49455U 21104AZ  24200.25491476  .00008259  00000+0  53619-3 0  9991
2 49455  53.2168  30.0881 0001307  89.6331 270.4811 15.08855450149351
STARLINK-3124           
1 49456U 21104BA  24199.80324461  .00000774  00000+0  66741-4 0  9994
2 49456  53.2173  32.1649 0001493  86.9750 273.1413 15.08837994148219
STARLINK-3132           
1 49457U 21104BB  24200.25219607  .00019944  00000+0  12672-2 0  9993
2 49457  53.2168  30.1149 0001185 100.7004 259.4122 15.08853359149355
STARLINK-3156           
1 49458U 21104BC  24200.25860000  .00000437  00000+0  45543-4 0  9995
2 49458  53.2196  30.0686 0001523  96.9018 263.2148 15.08841343149361
STARLINK-3141           
1 49459U 21104BD  24200.51249904  .00003011  00000+0  20707-3 0  9994
2 49459  53.2185  28.9323 0001238  86.7489 273.3645 15.08862531149395
STARLINK-3140           
1 49460U 21104BE  24199.84644448  .00000183  00000+0  29577-4 0  9993
2 49460  53.2183  31.9283 0001418  95.4301 264.6853 15.08835130148213
STARLINK-3219           
1 49724U 21115A   24199.65051214  .00001984  00000+0  14272-3 0  9995
2 49724  53.2171 323.0242 0001088  69.5642 290.5467 15.08837756144947
STARLINK-3218           
1 49725U 21115B   24199.60633699  .00003444  00000+0  23436-3 0  9999
2 49725  53.2179 323.1023 0001328  74.6480 285.4659 15.08838629146058
STARLINK-3237           
1 49726U 21115C   24200.55946076  .00189138  00000+0  40167-2 0  9997
2 49726  53.1916 305.4583 0005731 331.8697  28.2000 15.43828629146388
STARLINK-3242           
1 49727U 21115D   24199.69372200 -.00000003  00000+0  17869-4 0  9991
2 49727  53.2185 332.6098 0001211  73.1643 286.9482 15.08840134144816
STARLINK-3240           
1 49728U 21115E   24200.55852116  .00002802  00000+0  19403-3 0  9992
2 49728  53.2175 328.7257 0001261  78.8537 281.2597 15.08844595146056
STARLINK-3251           
1 49729U 21115F   24199.69003009  .00002655  00000+0  18486-3 0  9990
2 49729  53.2182 332.5069 0001247  64.6617 295.4504 15.08838132144812
STARLINK-3249           
1 49730U 21115G   24199.66062070  .00001712  00000+0  12563-3 0  9995
2 49730  53.2176 332.9537 0001281  79.3309 280.7828 15.08841861144808
STARLINK-3246           
1 49732U 21115J   24199.66797717  .00001058  00000+0  84538-4 0  9995
2 49732  53.2182 332.8833 0001177  78.1603 281.9521 15.08837254144807
STARLINK-3252           
1 49733U 21115K   24199.64587967 -.00000183  00000+0  65841-5 0  9994
2 49733  53.2175 332.8231 0001121  89.1103 271.0017 15.08836486144804
STARLINK-3238           
1 49734U 21115L   24200.52632964  .00002999  00000+0  20641-3 0  9996
2 49734  53.2165 318.8977 0001164  83.2694 276.8431 15.08838287146190
STARLINK-3113           
1 49735U 21115M   24200.56587243  .00003612  00000+0  24493-3 0  9992
2 49735  53.2181 328.5771 0001118 113.8666 246.2444 15.08838768146051
STARLINK-3148           
1 49736U 21115N   24199.59527190 -.00001417  00000+0 -70982-4 0  9996
2 49736  53.2179 322.9342 0001152  78.2974 281.8148 15.08837414144944
STARLINK-3225           
1 49737U 21115P   24199.66887857  .00004153  00000+0  27885-3 0  9995
2 49737  53.2165 322.7203 0000937 111.5422 248.5670 15.08840132144955
STARLINK-3143           
1 49738U 21115Q   24199.62937962  .00000872  00000+0  72842-4 0  9993
2 49738  53.2183 323.1018 0001130  99.6256 260.4864 15.08841710144942
STARLINK-3155           
1 49739U 21115R   24199.65692507  .00002506  00000+0  17552-3 0  9992
2 49739  53.2167 332.7751 0001237  75.1187 284.9942 15.08836842144808
STARLINK-3226           
1 49740U 21115S   24200.54567058  .00002451  00000+0  17199-3 0  9993
2 49740  53.2201 318.7573 0001288  83.4349 276.6790 15.08842414146198
STARLINK-3244           
1 49741U 21115T   24200.54199844  .00000081  00000+0  23166-4 0  9997
2 49741  53.2154 318.8117 0001242  82.5900 277.5234 15.08838003146196
STARLINK-3202           
1 49742U 21115U   24200.55573692  .00004676  00000+0  31143-3 0  9993
2 49742  53.2192 318.7379 0001407 115.1079 245.0059 15.08871474146195
STARLINK-3239           
1 49743U 21115V   24200.53831213  .00008303  00000+0  53908-3 0  9992
2 49743  53.2183 318.7487 0001308 112.2533 247.8597 15.08843087146195
STARLINK-3231           
1 49744U 21115W   24200.55303095  .00002333  00000+0  16461-3 0  9997
2 49744  53.2166 318.6427 0001327  74.8988 285.2151 15.08838352146199
STARLINK-3241           
1 49745U 21115X   24199.62198968  .00002068  00000+0  14797-3 0  9999
2 49745  53.2177 322.9054 0001341  82.1037 278.0107 15.08844431144946
STARLINK-3233           
1 49746U 21115Y   24200.57048535  .00001009  00000+0  81479-4 0  9997
2 49746  53.2168 318.6729 0000770  60.3010 299.8059 15.08837576146190
STARLINK-3247           
1 49747U 21115Z   24200.55944355  .00003418  00000+0  23270-3 0  9991
2 49747  53.2169 318.7235 0001468  76.7004 283.4152 15.08844372146199
STARLINK-3248           
1 49748U 21115AA  24200.53730765  .00004360  00000+0  29178-3 0  9998
2 49748  53.2179 318.3986 0001290  79.4840 280.6297 15.08846584146209
STARLINK-3250           
1 49749U 21115AB  24199.66250545  .00002247  00000+0  15921-3 0  9996
2 49749  53.2172 322.9893 0001268  72.6296 287.4834 15.08838977144944
STARLINK-3236           
1 49750U 21115AC  24200.58616505  .00011280  00000+0  72559-3 0  9991
2 49750  53.2170 318.6126 0001073  85.0701 275.0413 15.08842949146209
STARLINK-3229           
1 49751U 21115AD  24200.56679099  .00001053  00000+0  84208-4 0  9999
2 49751  53.2171 318.6186 0001244  90.6460 269.4675 15.08843551146208
STARLINK-3209           
1 49752U 21115AE  24200.53556208 -.00000389  00000+0 -63240-5 0  9990
2 49752  53.2187 308.8440 0001633  99.8815 260.2361 15.08837352146334
STARLINK-3200           
1 49753U 21115AF  24200.51529041  .00000524  00000+0  51033-4 0  9999
2 49753  53.2185 318.9221 0001868  45.5892 314.5252 15.08827746146197
STARLINK-3193           
1 49754U 21115AG  24199.61093060  .00005213  00000+0  34534-3 0  9991
2 49754  53.2167 313.0905 0001411  95.1213 264.9940 15.08843748145084
STARLINK-3210           
1 49755U 21115AH  24200.52727494 -.00003937  00000+0 -22944-3 0  9995
2 49755  53.2176 318.9134 0001303  89.7129 270.4012 15.08831093146193
STARLINK-3207           
1 49756U 21115AJ  24199.61828096  .00001243  00000+0  96191-4 0  9995
2 49756  53.2180 312.9506 0001458 109.8243 250.2906 15.08835068145089
STARLINK-3197           
1 49757U 21115AK  24200.53924151 -.00003239  00000+0 -18557-3 0  9997
2 49757  53.2180 308.8310 0001565 109.6498 250.4664 15.08828020146338
STARLINK-3194           
1 49758U 21115AL  24200.55300199  .00001284  00000+0  98783-4 0  9996
2 49758  53.2182 308.7526 0003346  37.1041 323.0182 15.08848889146334
STARLINK-3204           
1 49759U 21115AM  24200.54196621  .00022047  00000+0  13984-2 0  9997
2 49759  53.2166 308.8037 0001269  63.2936 296.8186 15.08856243146334
STARLINK-3199           
1 49760U 21115AN  24199.63300473  .00001994  00000+0  14334-3 0  9997
2 49760  53.2166 312.8820 0001130  74.2869 285.8248 15.08836923145097
STARLINK-3203           
1 49761U 21115AP  24199.62196118 -.00000330  00000+0 -26527-5 0  9990
2 49761  53.2169 312.9341 0001316  84.8707 275.2435 15.08834133145085
STARLINK-3195           
1 49762U 21115AQ  24200.56771673  .00004122  00000+0  27684-3 0  9996
2 49762  53.2156 308.6893 0001270  85.8172 274.2965 15.08849410146343
STARLINK-3198           
1 49763U 21115AR  24200.55669254  .00023612  00000+0  14964-2 0  9998
2 49763  53.2167 308.7385 0001268  73.0168 287.0963 15.08847824146341
STARLINK-3206           
1 49764U 21115AS  24200.58334491  .01285126  00000+0  14878-1 0  9998
2 49764  53.2134 305.0449 0001266  75.8944 355.0269 15.58663632146395
STARLINK-3227           
1 49765U 21115AT  24199.63763900  .00002604  00000+0  18161-3 0  9991
2 49765  53.2174 312.8714 0001316  90.9177 269.1966 15.08845124145091
STARLINK-3190           
1 49766U 21115AU  24200.57972225  .00008220  00000+0  53384-3 0  9996
2 49766  53.2179 308.6393 0001258  91.7417 268.3719 15.08847399146346
STARLINK-3192           
1 49767U 21115AV  24199.64404428  .00000378  00000+0  41821-4 0  9997
2 49767  53.2187 312.8300 0001110  89.6594 270.4526 15.08839736146201
STARLINK-3196           
1 49768U 21115AW  24200.51987956  .00000088  00000+0  23611-4 0  9994
2 49768  53.2167 308.9024 0001268  84.7727 275.3409 15.08838835146334
